[Satellite]
VERSION=1.1
NAME=LUCKY-7
NICKNAME=LUCKY-7
TLE1=1 44406U 19038W   22342.18567319  .00007777  00000+0  38515-3 0  9994
TLE2=2 44406  97.6610 312.6378 0019523 249.9688 109.9443 15.17898543189295
STATUS=0
